NORAD_CAT_ID,OBJECT_NAME,OBJECT_TYPE,EPOCH,MEAN_MOTION,ECCENTRICITY,INCLINATION,RA_OF_ASC_NODE,ARG_OF_PERICENTER,MEAN_ANOMALY,BSTAR,MEAN_MOTION_DOT,MEAN_MOTION_DDOT,TLE_LINE0,TLE_LINE1,TLE_LINE2,SEMIMAJOR_AXIS,PERIOD,APOGEE,PERIGEE,DECAYED
54807.0,STARLINK-5410,PAYLOAD,2023-01-09 14:09:52,15.7324475,0.0001023,53.2134,193.3861,3.3023,356.8004,0.00043278,0.00060674,0.0,0 STARLINK-5410,1 54807U 22175BB  23009.59019292  .00060674  00000-0  43278-3 0  9992,2 54807  53.2134 193.3861 0001023   3.3023 356.8004 15.73244750  3324,6727.768,91.531,350.321,348.944,0.0
54807.0,STARLINK-5410,PAYLOAD,2023-01-09 21:47:16,15.73221224,7.890000000000001e-05,53.2138,191.8133,14.5717,345.5326,0.0003631,0.00050693,0.0,0 STARLINK-5410,1 54807U 22175BB  23009.90783145  .00050693  00000-0  36310-3 0  9991,2 54807  53.2138 191.8133 0000789  14.5717 345.5326 15.73221224  5533,6727.835,91.532,350.23,349.1690000000001,0.0
54807.0,STARLINK-5410,PAYLOAD,2023-01-10 05:24:40,15.73226911,0.0001771999999999,53.2129,190.2432,33.4562,326.657,0.0002029,0.00027983,0.0,0 STARLINK-5410,1 54807U 22175BB  23010.22547320  .00027983  00000-0  20290-3 0  9997,2 54807  53.2129 190.2432 0001772  33.4562 326.6570 15.73226911  3424,6727.818,91.532,350.876,348.491,0.0
54807.0,STARLINK-5410,PAYLOAD,2023-01-10 11:30:36,15.732269699999998,0.0002613,53.2093,188.9839,57.6618,302.4655,0.00015178,0.00020759,0.0,0 STARLINK-5410,1 54807U 22175BB  23010.47958705  .00020759  00000-0  15178-3 0  9990,2 54807  53.2093 188.9839 0002613  57.6618 302.4655 15.73226970  3469,6727.818,91.532,351.441,347.925,0.0
54807.0,STARLINK-5410,PAYLOAD,2023-01-10 14:33:33,15.73206376,0.000135,53.2125,188.3552,45.6366,314.4765,0.00011019,0.00014876,0.0,0 STARLINK-5410,1 54807U 22175BB  23010.60664202  .00014876  00000-0  11019-3 0  9994,2 54807  53.2125 188.3552 0001350  45.6366 314.4765 15.73206376  3480,6727.877,91.533,350.65,348.834,0.0
54807.0,STARLINK-5410,PAYLOAD,2023-01-10 20:39:29,15.73200867,0.0001821,53.2126,187.1008,22.1959,337.9139,2.8823e-05,3.426e-05,0.0,0 STARLINK-5410,1 54807U 22175BB  23010.86075593  .00003426  00000-0  28823-4 0  9992,2 54807  53.2126 187.1008 0001821  22.1959 337.9139 15.73200867  5683,6727.893,91.533,350.983,348.533,0.0
54807.0,STARLINK-5410,PAYLOAD,2023-01-11 13:25:44,15.73246172,0.000128,53.2157,183.6406,335.8442,24.2518,0.00014011,0.00019127,0.0,0 STARLINK-5410,1 54807U 22175BB  23011.55954276  .00019127  00000-0  14011-3 0  9991,2 54807  53.2157 183.6406 0001280 335.8442  24.2518 15.73246172  5798,6727.764,91.53,350.49,348.767,0.0
54807.0,STARLINK-5410,PAYLOAD,2023-01-11 21:03:09,15.73179829,0.0001831,53.2123,182.0658,62.5612,297.5594,-0.00013119,-0.00018976,0.0,0 STARLINK-5410,1 54807U 22175BB  23011.87719222 -.00018976  00000-0 -13119-3 0  9997,2 54807  53.2123 182.0658 0001831  62.5612 297.5594 15.73179829  5847,6727.953,91.534,351.05,348.586,0.0
54807.0,STARLINK-5410,PAYLOAD,2023-01-12 19:55:23,15.73179271,0.0002237,53.2115,177.3518,59.5952,300.5289,-5.8738e-06,-1.445e-05,0.0,0 STARLINK-5410,1 54807U 22175BB  23012.83013540 -.00001445  00000-0 -58738-5 0  9995,2 54807  53.2115 177.3518 0002237  59.5952 300.5289 15.73179271  3838,6727.9540000000015,91.534,351.324,348.314,0.0
54807.0,STARLINK-5410,PAYLOAD,2023-01-13 06:35:45,15.73209463,0.0001447,53.2124,175.1509,61.6445,298.4721,0.00010523,0.00014179,0.0,0 STARLINK-5410,1 54807U 22175BB  23013.27482663  .00014179  00000-0  10523-3 0  9994,2 54807  53.2124 175.1509 0001447  61.6445 298.4721 15.73209463  3908,6727.868,91.533,350.707,348.76,0.0
54807.0,STARLINK-5410,PAYLOAD,2023-01-13 12:41:40,15.73204839,0.0001149,53.214,173.8939,56.3996,303.7134,8.444899999999999e-05,0.0001125,0.0,0 STARLINK-5410,1 54807U 22175BB  23013.52894208  .00011250  00000-0  84449-4 0  9990,2 54807  53.2140 173.8939 0001149  56.3996 303.7134 15.73204839  6104,6727.880999999999,91.533,350.519,348.973,0.0
54807.0,STARLINK-5410,PAYLOAD,2023-01-14 19:11:16,15.73220921,0.0001530999999999,53.2123,167.6079,110.1971,249.9214,0.00018221,0.00025051,0.0,0 STARLINK-5410,1 54807U 22175BB  23014.79949833  .00025051  00000-0  18221-3 0  9993,2 54807  53.2123 167.6079 0001531 110.1971 249.9214 15.73220921  4140,6727.835999999999,91.532,350.731,348.67,0.0
54807.0,STARLINK-5410,PAYLOAD,2023-01-15 02:48:40,15.73208762,8.06e-05,53.2123,166.03599999999997,115.0319,245.0785,0.00038779,0.00054176,0.0,0 STARLINK-5410,1 54807U 22175BB  23015.11713963  .00054176  00000-0  38779-3 0  9993,2 54807  53.2123 166.0360 0000806 115.0319 245.0785 15.73208762  4194,6727.87,91.533,350.277,349.19300000000004,0.0
54807.0,STARLINK-5410,PAYLOAD,2023-01-15 11:57:33,15.73211707,0.0001085,53.2142,164.1486,95.8936,264.2208,8.1143e-05,0.00010788,0.0,0 STARLINK-5410,1 54807U 22175BB  23015.49830529  .00010788  00000-0  81143-4 0  9997,2 54807  53.2142 164.1486 0001085  95.8936 264.2208 15.73211707  6416,6727.861999999999,91.532,350.457,348.997,0.0
54807.0,STARLINK-5410,PAYLOAD,2023-01-15 16:31:59,15.73230331,8.88e-05,53.2137,163.2057,92.8673,267.2448,0.00011241,0.00015205,0.0,0 STARLINK-5410,1 54807U 22175BB  23015.68888309  .00015205  00000-0  11241-3 0  9997,2 54807  53.2137 163.2057 0000888  92.8673 267.2448 15.73230331  4285,6727.809,91.531,350.271,349.076,0.0
54807.0,STARLINK-5410,PAYLOAD,2023-01-16 13:52:43,15.73202563,0.0001082,53.2148,158.8036,78.8017,281.3125,3.0298e-05,3.635e-05,0.0,0 STARLINK-5410,1 54807U 22175BB  23016.57828197  .00003635  00000-0  30298-4 0  9993,2 54807  53.2148 158.8036 0001082  78.8017 281.3125 15.73202563  6587,6727.888000000001,91.533,350.481,349.025,0.0
54807.0,STARLINK-5410,PAYLOAD,2023-01-16 15:24:12,15.73197965,0.0001079,53.215,158.4888,79.3018,280.8123,1.6724e-05,1.728e-05,0.0,0 STARLINK-5410,1 54807U 22175BB  23016.64181077  .00001728  00000-0  16724-4 0  9999,2 54807  53.2150 158.4888 0001079  79.3018 280.8123 15.73197965  4437,6727.901,91.533,350.492,349.04,0.0
54807.0,STARLINK-5410,PAYLOAD,2023-01-17 02:04:35,15.73187578,0.0001189,53.2141,156.2848,75.3956,284.7196,5.1054e-06,9.7e-07,0.0,0 STARLINK-5410,1 54807U 22175BB  23017.08651714  .00000097  00000-0  51054-5 0  9992,2 54807  53.2141 156.2848 0001189  75.3956 284.7196 15.73187578  4508,6727.931,91.534,350.596,348.996,0.0
54807.0,STARLINK-5410,PAYLOAD,2023-01-17 11:13:27,15.73222195,8.51e-05,53.2145,154.4033,87.774,272.3377,0.0001839,0.00025291,0.0,0 STARLINK-5410,1 54807U 22175BB  23017.46768007  .00025291  00000-0  18390-3 0  9995,2 54807  53.2145 154.4033 0000851  87.7740 272.3377 15.73222195  6726,6727.831999999999,91.532,350.269,349.124,0.0
54807.0,STARLINK-5410,PAYLOAD,2023-01-17 18:50:50,15.73261363,7.79e-05,53.2142,152.8333,56.3781,303.7313,0.00022034,0.00030497,0.0,0 STARLINK-5410,1 54807U 22175BB  23017.78530900  .00030497  00000-0  22034-3 0  9993,2 54807  53.2142 152.8333 0000779  56.3781 303.7313 15.73261363  4619,6727.72,91.53,350.10900000000004,349.061,0.0
54807.0,STARLINK-5410,PAYLOAD,2023-01-18 08:34:10,15.73229504,0.0002416,53.2135,150.0024,83.0298,277.0997,0.00011751,0.00015924,0.0,0 STARLINK-5410,1 54807U 22175BB  23018.35706343  .00015924  00000-0  11751-3 0  9995,2 54807  53.2135 150.0024 0002416  83.0298 277.0997 15.73229504  4700,6727.811,91.531,351.301,348.051,0.0
54807.0,STARLINK-5410,PAYLOAD,2023-01-18 11:37:07,15.73228032,0.0001343,53.214,149.3734,84.0441,276.0732,0.00018345,0.00025234,0.0,0 STARLINK-5410,1 54807U 22175BB  23018.48411781  .00025234  00000-0  18345-3 0  9999,2 54807  53.2140 149.3734 0001343  84.0441 276.0732 15.73228032  6886,6727.815,91.532,350.584,348.777,0.0
54807.0,STARLINK-5410,PAYLOAD,2023-01-18 19:14:31,15.73236195,0.0001455,53.2141,147.8008,64.0609,296.0561,0.00024385,0.00033793,0.0,0 STARLINK-5410,1 54807U 22175BB  23018.80175283  .00033793  00000-0  24385-3 0  9999,2 54807  53.2141 147.8008 0001455  64.0609 296.0561 15.73236195  6939,6727.792,91.531,350.636,348.67800000000005,0.0
54807.0,STARLINK-5410,PAYLOAD,2023-01-19 10:29:19,15.73208779,9.13e-05,53.216,144.6587,12.2239,347.8803,0.00031082,0.00043242,0.0,0 STARLINK-5410,1 54807U 22175BB  23019.43703681  .00043242  00000-0  31082-3 0  9990,2 54807  53.2160 144.6587 0000913  12.2239 347.8803 15.73208779  4871,6727.87,91.533,350.349,349.121,0.0
54807.0,STARLINK-5410,PAYLOAD,2023-01-20 12:24:29,15.73202528,0.0001228,53.2154,139.3113,107.2372,252.8783,0.00048478,0.00067975,0.0,0 STARLINK-5410,1 54807U 22175BB  23020.51700948  .00067975  00000-0  48478-3 0  9990,2 54807  53.2154 139.3113 0001228 107.2372 252.8783 15.73202528  5041,6727.888000000001,91.533,350.579,348.927,0.0
54807.0,STARLINK-5410,PAYLOAD,2023-01-21 00:36:20,15.73224184,0.0001284999999999,53.2154,136.7972,86.9338,273.1829,0.00041528,0.00058126,0.0,0 STARLINK-5410,1 54807U 22175BB  23021.02523391  .00058126  00000-0  41528-3 0  9999,2 54807  53.2154 136.7972 0001285  86.9338 273.1829 15.73224184  5121,6727.826,91.532,350.556,348.827,0.0
54807.0,STARLINK-5410,PAYLOAD,2023-01-21 11:16:41,15.73243078,0.0001181,53.2156,134.5956,106.0014,254.1136,0.00026866,0.00037322,0.0,0 STARLINK-5410,1 54807U 22175BB  23021.46992222  .00037322  00000-0  26866-3 0  9993,2 54807  53.2156 134.5956 0001181 106.0014 254.1136 15.73243078  5191,6727.772,91.531,350.432,348.843,0.0
54807.0,STARLINK-5410,PAYLOAD,2023-01-21 14:19:38,15.73252328,0.0001182,53.2151,133.9697,87.2721,272.8435,0.00081749,0.00115965,0.0,0 STARLINK-5410,1 54807U 22175BB  23021.59697690  .00115965  00000-0  81749-3 0  9999,2 54807  53.2151 133.9697 0001182  87.2721 272.8435 15.73252328  5217,6727.746,91.53,350.406,348.816,0.0
54807.0,STARLINK-5410,PAYLOAD,2023-01-22 02:31:29,15.73241549,9.19e-05,53.2163,131.455,19.1043,341.0012,0.00078547,0.00111284,0.0,0 STARLINK-5410,1 54807U 22175BB  23022.10520552  .00111284  00000-0  78547-3 0  9991,2 54807  53.2163 131.4550 0000919  19.1043 341.0012 15.73241549  5290,6727.776999999999,91.531,350.26,349.023,0.0
